[Satellite]
VERSION=1.1
NAME=PROXIMA II
NICKNAME=PROXIMA II
TLE1=1 43696U 18088G   22342.54571894  .00013566  00000+0  46705-3 0  9994
TLE2=2 43696  85.0294 196.8200 0014874 180.4864 179.6370 15.29807957226544
STATUS=0
